FENGYUN 1C DEB          
1 30485U 99025AGX 17345.92535413  .00001015  00000-0  35102-3 0  9998
2 30485  98.9634 111.2731 0135141 139.4338 347.3513 14.33039081565401
